satname,norad_id,inclination_deg,eccentricity,mean_motion_rev_per_day,perigee_km,apogee_km,l1,l2
STARLINK-1221,45227,53.0698,0.0003094,15.35167761,458.30639357048767,462.5380940305513,1 45227U 20012BB  25266.90549103  .00021581  00000+0  63238-3 0  9998,2 45227  53.0698 335.9444 0003094 189.8252 170.2689 15.35167761311039
STARLINK-1222,45228,53.0559,0.0001573,15.06411272,546.0876592032182,548.2663629911085,1 45228U 20012BC  25267.07283705  .00005116  00000+0  36198-3 0  9992,2 45228  53.0559  34.5877 0001573  77.1754 282.9411 15.06411272310179
STARLINK-1226,45229,53.0558,0.0001703,15.0642843,545.9450534325542,548.3037974740628,1 45229U 20012BD  25266.63790597  .00011218  00000+0  77019-3 0  9993,2 45229  53.0558  36.5418 0001703  84.2687 275.8496 15.06428430310113
STARLINK-1227,45230,53.0553,0.0001444,15.06418887,546.1536606351756,548.1536845814244,1 45230U 20012BE  25266.63421206  .00017411  00000+0  11842-2 0  9995,2 45230  53.0553  36.5571 0001444  87.1514 272.9640 15.06418887310230
STARLINK-1238,45233,53.0403,0.0003556,16.00678255,270.17433090506984,274.9042918977384,1 45233U 20012BH  25266.54352028  .00602918  17410-3  11100-2 0  9999,2 45233  53.0403   2.4064 0003556 354.3331   5.7657 16.00678255310678
STARLINK-1246,45235,53.0539,0.0001302,15.06404546,546.2959465698668,548.0993037062526,1 45235U 20012BK  25267.17973402  .00000903  00000+0  79498-4 0  9991,2 45235  53.0539  74.1075 0001302  81.5483 278.5654 15.06404546309762
STARLINK-1247,45236,53.0402,0.000312,15.98987675,275.1497701858443,279.30271684980016,1 45236U 20012BL  25267.33336806  .00431248  89699-4  87561-3 0  9996,2 45236  53.0402 338.3564 0003120   5.0027 190.7702 15.98987675  6038
STARLINK-1270,45237,53.0532,0.0001042,15.06425537,546.4116786525337,547.8549049813482,1 45237U 20012BM  25267.05072625  .00004715  00000+0  33499-3 0  9992,2 45237  53.0532  34.6870 0001042  59.4995 300.6097 15.06425537310284
STARLINK-1279,45360,53.0533,0.0001294,15.06441685,546.1876787912242,547.9799259348756,1 45360U 20019A   25267.00924936  .00009714  00000+0  66937-3 0  9999,2 45360  53.0533 164.8766 0001294  73.3302 286.7829 15.06441685305012
STARLINK-1301,45361,53.0547,0.0001169,15.06416777,546.3505720912344,547.9697065624096,1 45361U 20019B   25267.12997492  .00001440  00000+0  11549-3 0  9997,2 45361  53.0547 174.3339 0001169  85.9588 274.1534 15.06416777304901
STARLINK-1306,45362,53.0508,0.0009721,15.56946877,389.9135724194848,403.08482011226533,1 45362U 20019C   25267.18088196  .00134809  00000+0  18104-2 0  9995,2 45362  53.0508 176.4806 0009721  96.6801 263.5317 15.56946877304871
STARLINK-1262,45366,53.0547,0.0001264,15.06388835,546.3704088835293,548.121145649623,1 45366U 20019G   25266.09976647  .00000928  00000+0  81218-4 0  9997,2 45366  53.0547 198.9560 0001264  91.4539 268.6594 15.06388835304477
STARLINK-1273,45367,53.0532,0.0001511,15.06429393,546.0750675359777,548.167880646849,1 45367U 20019H   25267.18341314  .00019579  00000+0  13286-2 0  9996,2 45367  53.0532 194.0960 0001511  89.4554 270.6608 15.06429393304634
STARLINK-1276,45368,53.055,0.000118,15.06417195,546.3416733298282,547.9760431523737,1 45368U 20019J   25267.08757473  .00003222  00000+0  23499-3 0  9999,2 45368  53.0550 194.5263 0001180  89.1020 271.0104 15.06417195304625
STARLINK-1277,45369,53.0536,0.0001198,15.06439722,546.2601762315526,547.9194605772418,1 45369U 20019K   25267.08028480  .00024064  00000+0  16272-2 0  9996,2 45369  53.0536 195.1869 0001198  89.2903 270.8223 15.06439722304617
STARLINK-1281,45370,53.0543,0.0001301,15.06440159,546.1875072866869,547.9894509563555,1 45370U 20019L   25267.07652043  .00021611  00000+0  14637-2 0  9993,2 45370  53.0543 194.5755 0001301  93.7235 266.3903 15.06440159304620
STARLINK-1300,45374,53.0547,0.0001371,15.06412089,546.2250469345636,548.1239673498212,1 45374U 20019Q   25266.50152131  .00003261  00000+0  23761-3 0  9997,2 45374  53.0547 197.1543 0001371  93.6537 266.4609 15.06412089304538
STARLINK-1302,45375,53.0539,0.0001273,15.06439146,546.210002085716,547.9731652831224,1 45375U 20019R   25267.17972120  .00016527  00000+0  11246-2 0  9993,2 45375  53.0539 194.1122 0001273  98.2067 261.9067 15.06439146304632
STARLINK-1304,45376,53.0531,0.0001424,15.06427772,546.1402845516914,548.112599579993,1 45376U 20019S   25267.19815568  .00011049  00000+0  75894-3 0  9992,2 45376  53.0531 194.0309 0001424  91.5120 268.6032 15.06427772304633
STARLINK-1305,45377,53.0533,0.0001407,15.06409754,546.2072711584633,548.1560558303709,1 45377U 20019T   25265.56530033  .00009351  00000+0  64568-3 0  9992,2 45377  53.0533 201.3578 0001407  81.8814 278.2335 15.06409754304395
STARLINK-1319,45379,53.0547,0.0001484,15.0639073,546.2122433566046,548.2676952410939,1 45379U 20019V   25267.08389264 -.00000795  00000+0 -34507-4 0  9997,2 45379  53.0547 194.5435 0001484  95.5069 264.6090 15.06390730304622
STARLINK-1258,45381,53.0397,0.0005167,16.05514644,255.7469402597926,262.6059399688065,1 45381U 20019X   25267.66722818  .00674413  23496-3  92973-3 0  9990,2 45381  53.0397 114.1925 0005167 208.0903 264.3934 16.05514644305740
STARLINK-1266,45383,53.0533,0.0001398,15.06372705,546.3270390216658,548.2633898688246,1 45383U 20019Z   25267.15211367 -.00000540  00000+0 -17367-4 0  9991,2 45383  53.0533 174.2371 0001398  93.7174 266.3975 15.06372705304901
STARLINK-1267,45384,53.0536,0.0001305,15.06438853,546.1887392011176,547.9962240958284,1 45384U 20019AA  25267.13741895  .00026076  00000+0  17612-2 0  9995,2 45384  53.0536 174.9595 0001305  93.9904 266.1234 15.06438853304892
STARLINK-1272,45386,53.0545,0.0001298,15.06437976,546.1962742773385,547.9940645485185,1 45386U 20019AC  25267.14468478 -.00001446  00000+0 -78103-4 0  9991,2 45386  53.0545 174.2691 0001298  91.6727 268.4411 15.06437976304902
STARLINK-1274,45387,53.0341,0.0008111,15.24876292,485.5852458906911,496.72861450425717,1 45387U 20019AD  25267.15166076  .00022928  00000+0  92024-3 0  9995,2 45387  53.0341 164.9636 0008111  80.5384 279.6530 15.24876292305038
STARLINK-1280,45388,53.0534,0.0001427,15.06438037,546.106751860676,548.0832130684721,1 45388U 20019AE  25267.20184149  .00013828  00000+0  94444-3 0  9990,2 45388  53.0534 194.0123 0001427  86.8222 273.2931 15.06438037304621
STARLINK-1283,45389,53.0559,0.0001349,15.06396385,546.2884063996908,548.1568684298654,1 45389U 20019AF  25267.18158457  .00004008  00000+0  28784-3 0  9995,2 45389  53.0559 174.1033 0001349  93.7841 266.3302 15.06396385304911
STARLINK-1284,45390,53.0535,0.0001405,15.06448879,546.0887644686936,548.0347453188197,1 45390U 20019AG  25267.15575926  .00019883  00000+0  13481-2 0  9992,2 45390  53.0535 174.2200 0001405  83.8462 276.2687 15.06448879304907
STARLINK-1292,45394,53.0489,0.0005217,15.73958434,344.087897518265,351.1055280741957,1 45394U 20019AL  25267.33336806  .00158386  00000+0  10754-2 0  9990,2 45394  53.0489 144.1404 0005217 155.0356 133.1503 15.73958434  5936
STARLINK-1297,45395,53.0546,0.0001063,15.06435553,546.3664422879201,547.8387482258713,1 45395U 20019AM  25267.12626334  .00002873  00000+0  21150-3 0  9998,2 45395  53.0546 174.3516 0001063 100.1987 259.9122 15.06435553304086
STARLINK-1307,45397,53.0537,0.0001243,15.06386925,546.3908054131234,548.1124570268448,1 45397U 20019AP  25267.11892098 -.00004320  00000+0 -27141-3 0  9998,2 45397  53.0537 174.3828 0001243  92.0231 268.0900 15.06386925304729
STARLINK-1312,45398,53.0506,0.0010506,15.7207891,345.884663942752,360.02803729106836,1 45398U 20019AQ  25267.33336806  .00209077  00000+0  15241-2 0  9994,2 45398  53.0506 143.6094 0010506  99.9593  26.1297 15.72078910  5858
STARLINK-1255,45399,53.0536,0.0001119,15.06456705,546.2628436749574,547.8126977886486,1 45399U 20019AR  25267.15300363  .00016970  00000+0  11537-2 0  9996,2 45399  53.0536 164.2327 0001119  86.1095 274.0022 15.06456705304856
STARLINK-1259,45403,53.0465,0.0007933,15.84558782,312.2556852343823,322.8790898156294,1 45403U 20019AV  25267.33336806  .00207832  00000+0  86610-3 0  9997,2 45403  53.0465 125.3428 0007933  99.1991 194.5987 15.84558782  5951
STARLINK-1260,45404,53.0551,0.0001239,15.06387087,546.3930791162875,548.109190296067,1 45404U 20019AW  25266.98715432 -.00003430  00000+0 -21158-3 0  9990,2 45404  53.0551 164.9774 0001239  88.1628 271.9503 15.06387087304733
STARLINK-1263,45405,53.055,0.0001434,15.06417221,546.1656911417176,548.1518659710073,1 45405U 20019AX  25266.97239729  .00007629  00000+0  53025-3 0  9990,2 45405  53.0550 165.0472 0001434 103.2153 256.8997 15.06417221304732
STARLINK-1265,45406,53.054,0.0001397,15.0641356,546.2025334152913,548.1374641907578,1 45406U 20019AY  25266.97977235  .00009978  00000+0  68756-3 0  9998,2 45406  53.0540 165.0105 0001397  83.3869 276.7280 15.06413560304733
STARLINK-1278,45408,53.0543,0.0001312,15.06424311,546.2284532714912,548.0456451820082,1 45408U 20019BA  25267.07282329  .00003623  00000+0  26185-3 0  9996,2 45408  53.0543 194.5917 0001312  99.9312 260.1825 15.06424311304333
STARLINK-1296,45412,53.0534,0.0001162,15.06438626,546.2884655943544,547.8978890875678,1 45412U 20019BE  25267.11614629  .00020492  00000+0  13892-2 0  9991,2 45412  53.0534 164.3993 0001162  85.0212 275.0910 15.06438626304755
STARLINK-1298,45413,53.0499,0.0010507,15.43005731,430.08322626395693,444.40506820675637,1 45413U 20019BF  25267.05931257  .00111939  00000+0  24690-2 0  9999,2 45413  53.0499 151.7702 0010507 110.1251 250.0885 15.43005731305023
STARLINK-1309,45414,53.0534,0.0001363,15.06397038,546.2767098107515,548.1645623023414,1 45414U 20019BG  25267.13089969  .00001351  00000+0  10956-3 0  9990,2 45414  53.0534 164.3334 0001363  77.8120 282.3021 15.06397038304740
STARLINK-1316,45415,53.0552,0.0001589,15.06402318,546.1040168542622,548.3048903682193,1 45415U 20019BH  25267.15671157 -.00000355  00000+0 -49604-5 0  9998,2 45415  53.0552 164.2152 0001589  92.1615 267.9556 15.06402318304781
